[{"OBJECT_NAME":"STARLINK-6352","OBJECT_ID":"2023-078R","EPOCH":"2026-03-09T23:30:10.268064","MEAN_MOTION":14.98319389,"ECCENTRICITY":0.00029699,"INCLINATION":69.9997,"RA_OF_ASC_NODE":323.8595,"ARG_OF_PERICENTER":266.4672,"MEAN_ANOMALY":93.6147,"EPHEMERIS_TYPE":0,"CLASSIFICATION_TYPE":"U","NORAD_CAT_ID":56782,"ELEMENT_SET_NO":999,"REV_AT_EPOCH":15321,"BSTAR":5.2158184e-5,"MEAN_MOTION_DOT":5.29e-6,"MEAN_MOTION_DDOT":0},{"OBJECT_NAME":"FENGYUN 1C DEB","OBJECT_ID":"1999-025CKU","EPOCH":"2026-03-07T04:09:20.285280","MEAN_MOTION":14.64130912,"ECCENTRICITY":0.01755094,"INCLINATION":99.0838,"RA_OF_ASC_NODE":38.0129,"ARG_OF_PERICENTER":68.0231,"MEAN_ANOMALY":310.4177,"EPHEMERIS_TYPE":0,"CLASSIFICATION_TYPE":"U","NORAD_CAT_ID":31893,"ELEMENT_SET_NO":999,"REV_AT_EPOCH":99640,"BSTAR":0.00044028638,"MEAN_MOTION_DOT":2.831e-5,"MEAN_MOTION_DDOT":0}]
